NORAD_CAT_ID,OBJECT_NAME,OBJECT_TYPE,EPOCH,MEAN_MOTION,ECCENTRICITY,INCLINATION,RA_OF_ASC_NODE,ARG_OF_PERICENTER,MEAN_ANOMALY,BSTAR,MEAN_MOTION_DOT,MEAN_MOTION_DDOT,TLE_LINE0,TLE_LINE1,TLE_LINE2,SEMIMAJOR_AXIS,PERIOD,APOGEE,PERIGEE,DECAYED
52554.0,STARLINK-3770,PAYLOAD,2022-08-26 20:00:01,15.08825665,0.0002491,53.2171,169.0044,57.7079,8.0551,0.00067793,0.00010514,0.0,0 STARLINK-3770,1 52554U 22051X   22238.83334491  .00010514  00000-0  67793-3 0  9999,2 52554  53.2171 169.0044 0002491  57.7079   8.0551 15.08825665 16560,6917.924,95.438,541.512,538.066,0.0
52554.0,STARLINK-3770,PAYLOAD,2022-08-26 22:00:00,15.08835085,0.0002515,53.2173,168.6293,57.0694,101.5871,-0.00047543,-7.846e-05,0.0,0 STARLINK-3770,1 52554U 22051X   22238.91667824 -.00007846  00000-0 -47543-3 0  9994,2 52554  53.2173 168.6293 0002515  57.0694 101.5871 15.08835085  1303,6917.895,95.438,541.5,538.021,0.0
52554.0,STARLINK-3770,PAYLOAD,2022-08-27 14:00:01,15.08825858,0.0002499,53.2177,165.6429,57.1873,124.6413,0.0011827,0.00018578,0.0,0 STARLINK-3770,1 52554U 22051X   22239.58334491  .00018578  00000-0  11827-2 0  9996,2 52554  53.2177 165.6429 0002499  57.1873 124.6413 15.08825858  1301,6917.924,95.438,541.5169999999998,538.06,0.0
52554.0,STARLINK-3770,PAYLOAD,2022-08-27 22:00:00,15.08858367,0.0002561,53.218,164.1471,58.8192,134.5929,-0.0012404999999999,-0.00019988,0.0,0 STARLINK-3770,1 52554U 22051X   22239.91667824 -.00019988  00000-0 -12405-2 0  9993,2 52554  53.2180 164.1471 0002561  58.8192 134.5929 15.08858367 16734,6917.824000000001,95.436,541.461,537.918,0.0
52554.0,STARLINK-3770,PAYLOAD,2022-08-28 14:00:01,15.08846954,0.0002487,53.2177,161.1539,59.6276,157.0119,0.0014148,0.00022305,0.0,0 STARLINK-3770,1 52554U 22051X   22240.58334491  .00022305  00000-0  14148-2 0  9990,2 52554  53.2177 161.1539 0002487  59.6276 157.0119 15.08846954 16832,6917.859,95.437,541.445,538.004,0.0
52554.0,STARLINK-3770,PAYLOAD,2022-08-28 22:00:00,15.08872689,0.0002493,53.2178,159.6584,59.8823,168.3655,-0.0034336999999999,-0.00054574,0.0,0 STARLINK-3770,1 52554U 22051X   22240.91667824 -.00054574  00000-0 -34337-2 0  9993,2 52554  53.2178 159.6584 0002493  59.8823 168.3655 15.08872689  1302,6917.78,95.435,541.37,537.9209999999998,0.0
52554.0,STARLINK-3770,PAYLOAD,2022-08-29 06:00:02,15.08832253,0.0002514,53.2173,158.16299999999995,55.2,184.7215,-0.00039517,-6.571e-05,0.0,0 STARLINK-3770,1 52554U 22051X   22241.25002315 -.00006571  00000-0 -39517-3 0  9999,2 52554  53.2173 158.1630 0002514  55.2000 184.7215 15.08832253 16936,6917.904,95.438,541.508,538.03,0.0
52554.0,STARLINK-3770,PAYLOAD,2022-08-29 14:00:01,15.08796529,0.0002319999999999,53.2173,156.6651,59.4826,191.9683,0.0021824,0.00034575,0.0,0 STARLINK-3770,1 52554U 22051X   22241.58334491  .00034575  00000-0  21824-2 0  9992,2 52554  53.2173 156.6651 0002320  59.4826 191.9683 15.08796529  1308,6918.013000000001,95.44,541.4830000000002,538.273,0.0
52554.0,STARLINK-3770,PAYLOAD,2022-08-29 22:00:00,15.08835082,0.0002396999999999,53.2172,155.1697,60.1469,202.8593,-0.0014987,-0.00024059,0.0,0 STARLINK-3770,1 52554U 22051X   22241.91667824 -.00024059  00000-0 -14987-2 0  9998,2 52554  53.2172 155.1697 0002397  60.1469 202.8593 15.08835082  1307,6917.895,95.438,541.419,538.102,0.0
52554.0,STARLINK-3770,PAYLOAD,2022-08-30 14:00:01,15.08810735,0.0002369,53.2165,152.1762,62.1748,223.9983,0.0027716,0.00044064,0.0,0 STARLINK-3770,1 52554U 22051X   22242.58334491  .00044064  00000-0  27716-2 0  9993,2 52554  53.2165 152.1762 0002369  62.1748 223.9983 15.08810735 17133,6917.97,95.439,541.474,538.196,0.0
52554.0,STARLINK-3770,PAYLOAD,2022-08-30 22:00:00,15.08850924,0.0002468,53.2164,150.6809,61.9454,235.802,-0.0014658,-0.00023549,0.0,0 STARLINK-3770,1 52554U 22051X   22242.91667824 -.00023549  00000-0 -14658-2 0  9997,2 52554  53.2164 150.6809 0002468  61.9454 235.8020 15.08850924  1308,6917.847,95.437,541.419,538.005,0.0
52554.0,STARLINK-3770,PAYLOAD,2022-08-31 14:00:01,15.08828774,0.0002411,53.2159,147.687,63.8945,257.06,0.0023916,0.00037969,0.0,0 STARLINK-3770,1 52554U 22051X   22243.58334491  .00037969  00000-0  23916-2 0  9998,2 52554  53.2159 147.6870 0002411  63.8945 257.0600 15.08828774  1308,6917.915,95.438,541.448,538.112,0.0
52554.0,STARLINK-3770,PAYLOAD,2022-08-31 22:00:00,15.08859583,0.0002483,53.2159,146.1916,62.2854,270.2673,-0.0031317,-0.00049814,0.0,0 STARLINK-3770,1 52554U 22051X   22243.91667824 -.00049814  00000-0 -31317-2 0  9992,2 52554  53.2159 146.1916 0002483  62.2854 270.2673 15.08859583 17333,6917.821,95.436,541.403,537.9680000000002,0.0
52554.0,STARLINK-3770,PAYLOAD,2022-09-01 14:00:01,15.08813649,0.0002408,53.2158,143.1976,64.2569,291.5525,0.0032248,0.00051373,0.0,0 STARLINK-3770,1 52554U 22051X   22244.58335648  .00051373  00000-0  32248-2 0  9997,2 52554  53.2158 143.1976 0002408  64.2569 291.5525 15.08813649 17433,6917.9609999999975,95.439,541.492,538.16,0.0
52554.0,STARLINK-3770,PAYLOAD,2022-09-01 22:00:00,15.08860393,0.0002546,53.2159,141.7024,62.5504,304.7845,-0.0014555999999999,-0.00023394,0.0,0 STARLINK-3770,1 52554U 22051X   22244.91667824 -.00023394  00000-0 -14556-2 0  9994,2 52554  53.2159 141.7024 0002546  62.5504 304.7845 15.08860393  1304,6917.818,95.436,541.444,537.922,0.0
52554.0,STARLINK-3770,PAYLOAD,2022-09-02 06:00:00,15.08863994,0.0002531,53.2158,140.2063,59.0484,319.8917,-0.0019430999999999,-0.00031102,0.0,0 STARLINK-3770,1 52554U 22051X   22245.25001157 -.00031102  00000-0 -19431-2 0  9996,2 52554  53.2158 140.2063 0002531  59.0484 319.8917 15.08863994 17531,6917.807,95.436,541.423,537.9209999999998,0.0
52554.0,STARLINK-3770,PAYLOAD,2022-09-02 14:00:01,15.0880755,0.0002381999999999,53.2161,138.7082,64.3477,326.2163,0.0032933,0.0005247,0.0,0 STARLINK-3770,1 52554U 22051X   22245.58334491  .00052470  00000-0  32933-2 0  9993,2 52554  53.2161 138.7082 0002382  64.3477 326.2163 15.08807550  1302,6917.98,95.44,541.492,538.197,0.0
52554.0,STARLINK-3770,PAYLOAD,2022-09-02 22:00:01,15.08851262,0.0002525999999999,53.2163,137.2131,62.4306,339.7737,-0.0014035999999999,-0.00022565,0.0,0 STARLINK-3770,1 52554U 22051X   22245.91668981 -.00022565  00000-0 -14036-2 0  9992,2 52554  53.2163 137.2131 0002526  62.4306 339.7737 15.08851262  1308,6917.846,95.437,541.4580000000002,537.964,0.0
52554.0,STARLINK-3770,PAYLOAD,2022-09-03 08:00:01,15.08875169,0.0002477,53.2164,135.3423,61.3596,85.2744,-0.0043042,-0.00068211,0.0,0 STARLINK-3770,1 52554U 22051X   22246.33334491 -.00068211  00000-0 -43042-2 0  9992,2 52554  53.2164 135.3423 0002477  61.3596  85.2744 15.08875169 17698,6917.773,95.435,541.351,537.924,0.0
52554.0,STARLINK-3770,PAYLOAD,2022-09-03 14:00:01,15.08810675,0.0002334,53.2166,134.2189,65.0882,0.2675,0.0027935,0.00044416,0.0,0 STARLINK-3770,1 52554U 22051X   22246.58334491  .00044416  00000-0  27935-2 0  9991,2 52554  53.2166 134.2189 0002334  65.0882   0.2675 15.08810675  1300,6917.97,95.439,541.45,538.22,0.0
52554.0,STARLINK-3770,PAYLOAD,2022-09-03 22:00:00,15.08847443,0.000246,53.2168,132.724,62.5684,14.3655,-0.001084,-0.00017503,0.0,0 STARLINK-3770,1 52554U 22051X   22246.91667824 -.00017503  00000-0 -10840-2 0  9993,2 52554  53.2168 132.7240 0002460  62.5684  14.3655 15.08847443 17781,6917.858,95.437,541.424,538.021,0.0
52554.0,STARLINK-3770,PAYLOAD,2022-09-04 14:00:01,15.08835253,0.0002251,53.2171,129.7297,66.2677,33.9454,0.00091602,0.00014319,0.0,0 STARLINK-3770,1 52554U 22051X   22247.58335648  .00014319  00000-0  91602-3 0  9999,2 52554  53.2171 129.7297 0002251  66.2677  33.9454 15.08835253  1305,6917.895,95.438,541.317,538.203,0.0
52554.0,STARLINK-3770,PAYLOAD,2022-09-04 20:00:01,15.0885777,0.0002273,53.2174,128.6087,64.0667,314.7816,-0.0010267,-0.000166,0.0,0 STARLINK-3770,1 52554U 22051X   22247.83334491 -.00016600  00000-0 -10267-2 0  9996,2 52554  53.2174 128.6087 0002273  64.0667 314.7816 15.08857770  1302,6917.826,95.436,541.263,538.119,0.0
52554.0,STARLINK-3770,PAYLOAD,2022-09-05 14:00:01,15.08836892,0.0002041,53.2173,125.2409,66.0038,68.9661,4.182e-05,3.77e-06,0.0,0 STARLINK-3770,1 52554U 22051X   22248.58334491  .00000377  00000-0  41820-4 0  9992,2 52554  53.2173 125.2409 0002041  66.0038  68.9661 15.08836892 18035,6917.89,95.438,541.1669999999998,538.3430000000002,0.0
52554.0,STARLINK-3770,PAYLOAD,2022-09-05 22:00:00,15.08837426,0.0002044999999999,53.2172,123.7463,60.8102,85.75399999999998,-0.0035494999999999,-0.00056335,0.0,0 STARLINK-3770,1 52554U 22051X   22248.91667824 -.00056335  00000-0 -35495-2 0  9994,2 52554  53.2172 123.7463 0002045  60.8102  85.7540 15.08837426  1304,6917.888000000001,95.438,541.168,538.339,0.0
52554.0,STARLINK-3770,PAYLOAD,2022-09-06 06:00:00,15.08815593,0.0002000999999999,53.2169,122.2497,58.9542,99.1721,-0.00081356,-0.00013204,0.0,0 STARLINK-3770,1 52554U 22051X   22249.25001157 -.00013204  00000-0 -81356-3 0  9999,2 52554  53.2169 122.2497 0002001  58.9542  99.1721 15.08815593 18140,6917.955,95.439,541.2040000000002,538.436,0.0
52554.0,STARLINK-3770,PAYLOAD,2022-09-06 14:00:01,15.08798054,0.0001893,53.2171,120.7523,66.3126,103.3763,0.0026149,0.00041526,0.0,0 STARLINK-3770,1 52554U 22051X   22249.58334491  .00041526  00000-0  26149-2 0  9999,2 52554  53.2171 120.7523 0001893  66.3126 103.3763 15.08798054  1301,6918.009,95.44,541.183,538.564,0.0
52554.0,STARLINK-3770,PAYLOAD,2022-09-06 22:00:00,15.08821532,0.0002026,53.2169,119.2578,61.6897,119.5614,-0.00029551,-4.986e-05,0.0,0 STARLINK-3770,1 52554U 22051X   22249.91667824 -.00004986  00000-0 -29551-3 0  9997,2 52554  53.2169 119.2578 0002026  61.6897 119.5614 15.08821532 18246,6917.937,95.439,541.203,538.4,0.0
52554.0,STARLINK-3770,PAYLOAD,2022-09-07 14:00:01,15.08820986,0.0001948,53.2167,116.2636,68.0823,136.3207,0.00221,0.00035041,0.0,0 STARLINK-3770,1 52554U 22051X   22250.58334491  .00035041  00000-0  22100-2 0  9999,2 52554  53.2167 116.2636 0001948  68.0823 136.3207 15.08820986  1304,6917.939,95.439,541.151,538.456,0.0
